1 41175U 15079B   19307.36090968  .00000026  00000-0  00000+0 0  9998
2 41175  54.9569 167.7309 0002812 339.8911  20.1849  1.70473185 24149
1 41175U 15079B   19308.53408052  .00000033  00000-0  00000+0 0  9993
2 41175  54.9572 167.6985 0002815 339.7637  20.3125  1.70473221 24161
1 41175U 15079B   19309.12066809  .00000037  00000-0  00000-0 0  9994
2 41175  54.9573 167.6824 0002791 340.0235  20.0543  1.70473246 24175
1 41175U 15079B   19314.39997315  .00000081  00000-0  00000+0 0  9992
2 41175  54.9576 167.5370 0002705 342.7593  17.3407  1.70473264 24262
1 41175U 15079B   19316.74631311  .00000091  00000-0  00000-0 0  9996
2 41175  54.9584 167.4724 0002701 344.4009  15.6978  1.70473216 24306
1 41175U 15079B   19316.74631373  .00000091  00000-0  00000+0 0  9993
2 41175  54.9583 167.4723 0002707 344.1724  15.9262  1.70473208 24301
1 41175U 15079B   19317.91947491  .00000092  00000-0  00000+0 0  9995
2 41175  54.9579 167.4400 0002680 344.7174  15.3761  1.70473196 24329
1 41175U 15079B   19319.67921355  .00000087  00000-0  00000+0 0  9995
2 41175  54.9582 167.3915 0002655 345.5952  14.4874  1.70473159 24355
1 41175U 15079B   19322.02553609  .00000080  00000-0  00000+0 0  9994
2 41175  54.9586 167.3268 0002612 346.7711  13.2998  1.70473125 24390
1 41175U 15079B   19322.61211706  .00000080  00000-0  00000-0 0  9999
2 41175  54.9577 167.3105 0002604 345.4999  14.5690  1.70473132 24408
1 41175U 15079B   19323.78528861  .00000081  00000-0  00000+0 0  9991
2 41175  54.9589 167.2783 0002578 347.0769  12.9928  1.70473144 24426
1 41175U 15079B   19323.78528861  .00000081  00000-0  00000-0 0  9992
2 41175  54.9589 167.2783 0002578 347.0769  12.9928  1.70473144 24426
1 41175U 15079B   19324.37187419  .00000083  00000-0  00000-0 0  9990
2 41175  54.9609 167.2622 0002591 346.4331  13.6372  1.70473155 24438
1 41175U 15079B   19326.71822521  .00000089  00000-0  00000+0 0  9995
2 41175  54.9612 167.1975 0002561 346.9037  13.1721  1.70473158 24477
1 41175U 15079B   19327.30481109  .00000089  00000-0  00000-0 0  9995
2 41175  54.9611 167.1813 0002550 347.0169  13.0592  1.70473165 24487
1 41175U 15079B   19327.89139528  .00000088  00000-0  00000+0 0  9992
2 41175  54.9608 167.1651 0002534 347.1033  12.9724  1.70473178 24496
1 41175U 15079B   19329.06456026  .00000083  00000-0  00000+0 0  9993
2 41175  54.9609 167.1327 0002515 347.4558  12.6163  1.70473197 24519
1 41175U 15079B   19329.65114007  .00000079  00000-0  00000-0 0  9994
2 41175  54.9614 167.1166 0002521 347.2876  12.7812  1.70473205 24527
1 41175U 15079B   19331.41087437  .00000065  00000-0  00000+0 0  9991
2 41175  54.9587 167.0681 0002512 347.8508  12.2054  1.70473294 24559
1 41175U 15079B   19331.99745214  .00000062  00000-0  00000-0 0  9996
2 41175  54.9589 167.0519 0002499 347.9428  12.1090  1.70473313 24569
1 41175U 15079B   19334.34377033  .00000057  00000-0  00000+0 0  9991
2 41175  54.9597 166.9872 0002470 347.9442  12.0939  1.70473372 24604
1 41175U 15079B   19336.10352105  .00000065  00000-0  00000-0 0  9990
2 41175  54.9604 166.9387 0002441 347.8796  12.1557  1.70473432 24630
1 41175U 15079B   19336.69010623  .00000069  00000-0  00000-0 0  9994
2 41175  54.9607 166.9225 0002429 348.2291  11.8068  1.70473450 24649
1 41175U 15079B   19338.44986840  .00000083  00000-0  00000+0 0  9997
2 41175  54.9614 166.8740 0002397 348.5283  11.5120  1.70473472 24679
1 41175U 15079B   19339.62304259  .00000091  00000-0  00000+0 0  9995
2 41175  54.9627 166.8416 0002431 348.2895  11.7540  1.70473485 24692
1 41175U 15079B   19339.62304259  .00000091  00000-0  00000-0 0  9996
2 41175  54.9627 166.8416 0002431 348.2895  11.7540  1.70473485 24692
1 41175U 15079B   19340.20962968  .00000095  00000-0  00000-0 0  9993
2 41175  54.9640 166.8254 0002422 348.5078  11.5374  1.70473487 24700
1 41175U 15079B   19341.38280225  .00000102  00000-0  00000+0 0  9990
2 41175  54.9641 166.7932 0002407 348.6753  11.3718  1.70473473 24724
1 41175U 15079B   19343.72913486  .00000110  00000-0  00000+0 0  9991
2 41175  54.9658 166.7286 0002394 348.6179  11.4251  1.70473420 24760
1 41175U 15079B   19346.07544928  .00000106  00000-0  00000-0 0  9999
2 41175  54.9640 166.6640 0002367 348.7332  11.2950  1.70473360 24808
1 41175U 15079B   19346.07544977  .00000106  00000-0  00000+0 0  9992
2 41175  54.9644 166.6640 0002373 348.6943  11.3339  1.70473365 24803
1 41175U 15079B   19346.66202661  .00000104  00000-0  00000-0 0  9997
2 41175  54.9635 166.6478 0002359 348.8882  11.1354  1.70473349 24818
1 41175U 15079B   19349.00834078  .00000093  00000-0  00000+0 0  9997
2 41175  54.9639 166.5832 0002339 348.8029  11.2051  1.70473310 24853
1 41175U 15079B   19350.76808661  .00000090  00000-0  00000-0 0  9999
2 41175  54.9666 166.5348 0002305 347.3152  12.6878  1.70473296 24887
1 41175U 15079B   19350.76808746  .00000090  00000-0  00000+0 0  9992
2 41175  54.9669 166.5347 0002311 347.5415  12.4616  1.70473294 24886
1 41175U 15079B   19353.70101682  .00000093  00000-0  00000+0 0  9997
2 41175  54.9674 166.4540 0002354 347.8144  12.1926  1.70473310 24931
1 41175U 15079B   19354.87418432  .00000091  00000-0  00000+0 0  9998
2 41175  54.9661 166.4216 0002271 346.1333  13.8731  1.70473340 24954
1 41175U 15079B   19356.04734805  .00000085  00000-0  00000-0 0  9998
2 41175  54.9660 166.3893 0002275 346.3077  13.6953  1.70473362 24974
1 41175U 15079B   19356.04734845  .00000085  00000-0  00000+0 0  9991
2 41175  54.9666 166.3892 0002302 346.8989  13.1043  1.70473358 24977
1 41175U 15079B   19358.39366148  .00000064  00000-0  00000+0 0  9995
2 41175  54.9665 166.3246 0002294 347.1545  12.8329  1.70473416 25015
1 41175U 15079B   19361.32655090  .00000047  00000-0  00000+0 0  9990
2 41175  54.9667 166.2439 0002258 345.6781  14.2889  1.70473513 25065
1 41175U 15079B   19362.49971306  .00000048  00000-0  00000+0 0  9991
2 41175  54.9673 166.2116 0002297 345.6387  14.3250  1.70473564 25080
1 41175U 15079B   19363.67288091  .00000053  00000-0  00000+0 0  9990
2 41175  54.9675 166.1793 0002291 344.6325  15.3307  1.70473597 25100
1 41175U 15079B   19365.43264018  .00000064  00000-0  00000+0 0  9991
2 41175  54.9679 166.1309 0002273 343.2858  16.6810  1.70473639 25136
1 41175U 15079B   20001.01922717  .00000067  00000-0  00000-0 0  9995
2 41175  54.9685 166.1146 0002277 342.6329  17.3357  1.70473646 25145
1 41175U 15079B   20002.77898947  .00000077  00000-0  00000-0 0  9997
2 41175  54.9690 166.0662 0002247 343.9211  16.0538  1.70473651 25170
1 41175U 15079B   20002.77898978  .00000077  00000-0  00000+0 0  9990
2 41175  54.9689 166.0661 0002253 344.2596  15.7154  1.70473650 25173
1 41175U 15079B   20004.53874468  .00000083  00000-0  00000+0 0  9991
2 41175  54.9683 166.0178 0002234 343.7024  16.2747  1.70473645 25201
1 41175U 15079B   20005.12532751  .00000084  00000-0  00000-0 0  9995
2 41175  54.9684 166.0017 0002239 343.0427  16.9336  1.70473621 25215
1 41175U 15079B   20006.29848929  .00000084  00000-0  00000+0 0  9990
2 41175  54.9683 165.9695 0002237 342.0193  17.9533  1.70473618 25239
1 41175U 15079B   20010.40453890  .00000066  00000-0  00000+0 0  9997
2 41175  54.9691 165.8563 0002256 340.4220  19.5259  1.70473505 25301
1 41175U 15079B   20010.99111873  .00000063  00000-0  00000-0 0  9991
2 41175  54.9692 165.8401 0002257 340.3157  19.6295  1.70473501 25310
1 41175U 15079B   20012.75086563  .00000057  00000-0  00000+0 0  9996
2 41175  54.9696 165.7916 0002263 339.2176  20.7241  1.70473476 25347
1 41175U 15079B   20013.33745078  .00000056  00000-0  00000-0 0  9994
2 41175  54.9696 165.7755 0002266 338.8699  21.0723  1.70473476 25356
1 41175U 15079B   20016.27038557  .00000057  00000-0  00000+0 0  9997
2 41175  54.9718 165.6946 0002323 337.8239  22.1265  1.70473482 25401
1 41175U 15079B   20017.44355403  .00000053  00000-0  00000+0 0  9995
2 41175  54.9720 165.6622 0002339 336.2608  23.6901  1.70473504 25425
1 41175U 15079B   20018.03013791  .00000049  00000-0  00000-0 0  9998
2 41175  54.9719 165.6462 0002329 336.6179  23.3325  1.70473506 25431
1 41175U 15079B   20020.37645461  .00000026  00000-0  00000-0 0  9998
2 41175  54.9719 165.5817 0002323 335.4995  24.4402  1.70473584 25479
1 41175U 15079B   20020.37645546  .00000026  00000-0  00000+0 0  9991
2 41175  54.9720 165.5817 0002329 335.7916  24.1482  1.70473573 25476
1 41175U 15079B   20020.96303152  .00000020  00000-0  00000-0 0  9995
2 41175  54.9721 165.5654 0002338 334.4841  25.4515  1.70473600 25482
1 41175U 15079B   20022.72276741  .00000006  00000-0  00000+0 0  9997
2 41175  54.9721 165.5170 0002333 333.5091  26.4166  1.70473652 25511
1 41175U 15079B   20025.06909690  .00000005  00000-0  00000+0 0  9992
2 41175  54.9718 165.4524 0002357 331.7946  28.1270  1.70473720 25559
1 41175U 15079B   20025.65568163  .00000007  00000-0  00000-0 0  9996
2 41175  54.9705 165.4363 0002367 331.0078  28.9147  1.70473741 25561
1 41175U 15079B   20027.41544411  .00000016  00000-0  00000+0 0  9991
2 41175  54.9739 165.3880 0002385 330.0120  29.9176  1.70473797 25595
1 41175U 15079B   20029.17521019  .00000026  00000-0  00000+0 0  9996
2 41175  54.9733 165.3394 0002406 328.3564  31.5825  1.70473820 25626
1 41175U 15079B   20030.34838654  .00000031  00000-0  00000+0 0  9999
2 41175  54.9731 165.3071 0002416 327.8203  32.1243  1.70473820 25644
1 41175U 15079B   20032.10814451  .00000036  00000-0  00000+0 0  9999
2 41175  54.9729 165.2586 0002456 326.2013  33.7480  1.70473803 25671
1 41175U 15079B   20033.28131090  .00000037  00000-0  00000+0 0  9991
2 41175  54.9717 165.2263 0002492 325.2956  34.6534  1.70473790 25692
1 41175U 15079B   20034.45447386  .00000035  00000-0  00000+0 0  9997
2 41175  54.9721 165.1941 0002501 325.6958  34.2510  1.70473773 25710
1 41175U 15079B   20035.04105404  .00000034  00000-0  00000-0 0  9995
2 41175  54.9721 165.1779 0002514 325.4334  34.5113  1.70473760 25728
